GLOBALSTAR M001         
1 25162U 98008A   25091.68916885 -.00000058  00000+0  29571-3 0  9999
2 25162  52.0027 195.8780 0002044 101.5421  49.8628 12.38211096234230
GLOBALSTAR M004         
1 25163U 98008B   25091.79843694 -.00000055  00000+0  26889-3 0  9995
2 25163  51.9996 287.1968 0003864 115.6546 257.5427 12.63392582252033
GLOBALSTAR M002         
1 25164U 98008C   25091.91843519 -.00000081  00000+0 -90885-4 0  9994
2 25164  52.0010  71.4310 0001503  11.1703 348.9150 11.61508487175202
GLOBALSTAR M003         
1 25165U 98008D   25092.52420911 -.00000048  00000+0  44259-3 0  9995
2 25165  52.0038  18.0724 0008264 137.5314  33.4384 12.12076081224130
GLOBALSTAR M014         
1 25306U 98023A   25091.97081666 -.00000063  00000+0  27090-3 0  9998
2 25306  51.9875 356.1314 0000589 182.0721 262.4026 11.65478938182284
GLOBALSTAR M006         
1 25307U 98023B   25092.38097058 -.00000072  00000+0  79294-4 0  9991
2 25307  51.9957  44.7295 0003373 331.9953 205.8781 11.58173313208155
GLOBALSTAR M015         
1 25308U 98023C   25091.85916759 -.00000089  00000+0 -34684-3 0  9993
2 25308  51.9797 141.0062 0012293 299.1898 230.8309 11.48858118185683
GLOBALSTAR M008         
1 25309U 98023D   25092.32468499 -.00000078  00000+0  14434-3 0  9998
2 25309  51.9974  57.9957 0002853  21.6054 135.4637 12.36065522228771
